[{"OBJECT_NAME":"STARLINK-30868","OBJECT_ID":"2023-178S","EPOCH":"2026-03-09T23:30:53.047296","MEAN_MOTION":15.30178321,"ECCENTRICITY":0.00011085,"INCLINATION":53.162,"RA_OF_ASC_NODE":359.8803,"ARG_OF_PERICENTER":81.8324,"MEAN_ANOMALY":278.2802,"EPHEMERIS_TYPE":0,"CLASSIFICATION_TYPE":"U","NORAD_CAT_ID":58390,"ELEMENT_SET_NO":999,"REV_AT_EPOCH":12993,"BSTAR":-5.1827259e-5,"MEAN_MOTION_DOT":-1.893e-5,"MEAN_MOTION_DDOT":0},{"OBJECT_NAME":"CZ-2C R\/B","OBJECT_ID":"2017-085D","EPOCH":"2026-03-09T07:36:19.955232","MEAN_MOTION":15.36259494,"ECCENTRICITY":0.00550258,"INCLINATION":34.6583,"RA_OF_ASC_NODE":163.0948,"ARG_OF_PERICENTER":204.4819,"MEAN_ANOMALY":155.3278,"EPHEMERIS_TYPE":0,"CLASSIFICATION_TYPE":"U","NORAD_CAT_ID":43084,"ELEMENT_SET_NO":999,"REV_AT_EPOCH":45326,"BSTAR":0.00049058122,"MEAN_MOTION_DOT":0.00018774,"MEAN_MOTION_DDOT":0}]
